[{"OBJECT_NAME":"LEMUR-2-ANDIS","OBJECT_ID":"2017-042P","EPOCH":"2026-03-09T13:25:33.116448","MEAN_MOTION":15.30557934,"ECCENTRICITY":0.0009101,"INCLINATION":97.3659,"RA_OF_ASC_NODE":249.795,"ARG_OF_PERICENTER":4.3248,"MEAN_ANOMALY":355.807,"EPHEMERIS_TYPE":0,"CLASSIFICATION_TYPE":"U","NORAD_CAT_ID":42838,"ELEMENT_SET_NO":999,"REV_AT_EPOCH":47319,"BSTAR":0.00079875,"MEAN_MOTION_DOT":0.00023598,"MEAN_MOTION_DDOT":0},{"OBJECT_NAME":"STARLINK-35602","OBJECT_ID":"2025-257Z","EPOCH":"2026-03-09T16:35:59.042976","MEAN_MOTION":15.30189236,"ECCENTRICITY":9.482e-5,"INCLINATION":53.158,"RA_OF_ASC_NODE":217.0219,"ARG_OF_PERICENTER":66.8442,"MEAN_ANOMALY":293.2658,"EPHEMERIS_TYPE":0,"CLASSIFICATION_TYPE":"U","NORAD_CAT_ID":66403,"ELEMENT_SET_NO":999,"REV_AT_EPOCH":1973,"BSTAR":0.0012900137,"MEAN_MOTION_DOT":0.0003803,"MEAN_MOTION_DDOT":0}]
